OBJECT_NAME,OBJECT_ID,EPOCH,MEAN_MOTION,ECCENTRICITY,INCLINATION,RA_OF_ASC_NODE,ARG_OF_PERICENTER,MEAN_ANOMALY,EPHEMERIS_TYPE,CLASSIFICATION_TYPE,NORAD_CAT_ID,ELEMENT_SET_NO,REV_AT_EPOCH,BSTAR,MEAN_MOTION_DOT,MEAN_MOTION_DDOT
WEINA 1B,2018-034E,2026-05-31T04:56:28.044096,13.45369886,.0273707,63.3925,135.5635,7.7695,352.7442,0,U,43279,999,39992,.10362E-3,-.14E-6,0
IRNSS-1I,2018-035A,2026-05-29T20:56:06.784800,1.00276002,.00181514,29.1334,74.4784,176.5025,5.4620,0,U,43286,999,2989,0,.76E-6,0
USA 283,2018-036A,2026-05-29T12:45:23.436864,1.00269770,.0000546,0.0175,320.0577,124.0463,128.4030,0,U,43339,999,2510,0,0,0
COSMOS 2526,2018-037A,2026-05-31T04:04:58.088064,1.00270685,.00009,0.0184,4.7162,231.2985,201.9610,0,U,43432,999,2978,0,-.332E-5,0
SENTINEL-3B,2018-039A,2026-05-31T03:33:20.140128,14.26736412,.0001044,98.6251,218.9240,74.4099,285.7197,0,U,43437,999,42169,.79195E-4,.148E-5,0
ZHUHAI-1 OVS-02,2018-040B,2026-05-31T05:39:40.604832,15.24775493,.0002529,97.0390,169.4733,354.5033,5.6178,0,U,43440,999,45013,.37464E-3,.9224E-4,0
ZHUHAI-1 OHS-02,2018-040C,2026-05-31T05:31:43.480704,15.25610232,.0007351,97.0374,176.3908,295.3953,64.6524,0,U,43441,999,11169,.41678E-3,.10538E-3,0
USA 285,2018-036E,2026-05-30T00:01:31.318752,1.02112223,.00105243,7.0746,67.1697,168.2458,357.2459,0,U,43445,999,2675,0,.37E-6,0
USA 286,2018-036F,2026-05-30T19:13:51.856032,1.02123852,.0010344,7.0736,67.1314,165.5768,9.4368,0,U,43446,999,2674,0,-.208E-5,0
APSTAR-6C,2018-041A,2026-05-30T22:58:40.148832,1.00271403,.000152,0.0290,356.8559,10.2734,0.0148,0,U,43450,999,2963,0,-.305E-5,0
GAOFEN-5 01,2018-043A,2026-05-30T22:26:56.145120,14.60591921,.0002815,98.4560,122.1606,114.6812,245.4681,0,U,43461,999,42917,.9495E-4,.412E-5,0
BANGABANDHUSAT-1,2018-044A,2026-05-31T00:37:05.956032,1.00272163,.000209,0.0174,21.9566,46.5154,308.4427,0,U,43463,999,2953,0,-.35E-5,0
GRACE-FO 1,2018-047A,2026-05-31T04:20:27.789216,15.38138269,.0011534,88.9930,200.2919,161.5688,198.5987,0,U,43476,999,44718,.13805E-3,.5222E-4,0
GRACE-FO 2,2018-047B,2026-05-31T04:20:54.325248,15.38140403,.0011527,88.9929,200.2920,161.5007,198.6670,0,U,43477,999,44718,.13879E-3,.525E-4,0
IRIDIUM 161,2018-047C,2026-05-30T23:23:55.447584,14.43279434,.0002446,86.4477,95.6673,90.3385,269.8096,0,U,43478,999,42265,.10604E-3,.377E-5,0
IRIDIUM 152,2018-047D,2026-05-30T20:51:22.286016,14.34217486,.0002268,86.3951,95.5728,86.1387,274.0068,0,U,43479,999,42000,-.57825E-5,.4E-7,0
IRIDIUM 147,2018-047E,2026-05-30T22:40:57.998208,14.34217263,.0002276,86.3951,95.5453,86.0775,274.0681,0,U,43480,999,42001,.55892E-4,.176E-5,0
IRIDIUM 110,2018-047F,2026-05-30T21:09:38.322720,14.34217526,.0002419,86.3955,95.6636,90.6947,269.4526,0,U,43481,999,41999,-.54874E-5,.4E-7,0
IRIDIUM 162,2018-047G,2026-05-30T21:34:59.939904,14.43283774,.0002417,86.4476,95.5901,83.5342,276.6134,0,U,43482,999,42263,.10381E-3,.369E-5,0
GAOFEN-6,2018-048A,2026-05-31T04:44:57.942240,14.76609944,.0010903,97.7770,214.5039,225.2985,134.7338,0,U,43484,999,43088,.13344E-3,.883E-5,0
LUOJIA-1 01,2018-048B,2026-05-31T05:16:32.071296,14.87214911,.0009347,97.8105,229.6802,169.0293,191.1129,0,U,43485,999,43169,.42336E-3,.376E-4,0
SES-12,2018-049A,2026-05-31T03:57:21.674016,1.00271273,.0001008,0.0362,52.8801,269.0320,81.1032,0,U,43488,999,2924,0,-.257E-5,0
FENGYUN 2H,2018-050A,2026-05-31T02:08:29.533344,1.00272234,.0001405,2.9890,79.2693,130.1056,150.7950,0,U,43491,999,2926,0,-.12E-5,0
COSMOS 2527 [GLONASS-M],2018-053A,2026-05-30T06:03:52.369344,2.13102105,.00076102,65.5689,74.5049,244.6563,115.2575,0,U,43508,999,6189,0,-.51E-6,0
PAKTES 1A,2018-056A,2026-05-31T04:24:43.059744,14.99004976,.0022173,98.1265,306.9452,160.4663,199.7413,0,U,43529,999,42937,.37367E-3,.4486E-4,0
PRSS-1,2018-056B,2026-05-31T04:12:10.424160,14.81959460,.0001843,97.7830,219.5153,86.2202,273.9222,0,U,43530,999,42591,.1359E-3,.1026E-4,0
BEIDOU-2 IGSO-7,2018-057A,2026-05-30T22:52:03.284256,1.00256782,.0104451,55.1922,163.2079,237.9867,301.4656,0,U,43539,999,2895,0,-.1E-6,0
TELSTAR 19V,2018-059A,2026-05-31T03:47:46.312224,1.00270624,.0002791,0.0222,139.4583,326.2173,136.9325,0,U,43562,999,2897,0,-.267E-5,0
GSAT0221 (GALILEO 25),2018-060A,2026-05-29T21:08:30.011424,1.70476125,.00029214,57.1753,342.2743,313.9283,46.0661,0,U,43564,999,4885,0,-.87E-6,0
GSAT0222 (GALILEO 26),2018-060B,2026-05-30T16:29:26.683296,1.70475811,.00018242,57.1821,342.2563,262.8760,97.1203,0,U,43565,999,4891,0,-.85E-6,0
GSAT0219 (GALILEO 23),2018-060C,2026-05-28T13:28:50.650176,1.70476061,.000253,57.1785,342.3150,333.7938,26.2140,0,U,43566,999,4885,0,-.89E-6,0
GSAT0220 (GALILEO 24),2018-060D,2026-05-29T22:56:25.008864,1.70476128,.0002478,57.1765,342.2774,325.6585,34.3438,0,U,43567,999,4886,0,-.87E-6,0
IRIDIUM 160,2018-061A,2026-05-31T04:13:58.456992,14.34217746,.0002247,86.3974,63.9084,88.0217,272.1236,0,U,43569,999,41093,.89715E-4,.271E-5,0
IRIDIUM 166,2018-061B,2026-05-31T04:50:30.469056,14.34217741,.0002088,86.3971,63.8488,83.3424,276.8010,0,U,43570,999,41096,.82608E-5,.43E-6,0
IRIDIUM 158,2018-061C,2026-05-31T04:04:50.102112,14.34216953,.0002304,86.3970,63.8720,83.0567,277.0891,0,U,43571,999,41092,.58339E-4,.183E-5,0
IRIDIUM 165,2018-061D,2026-05-31T04:41:22.420032,14.34217648,.0001991,86.3967,63.9076,83.9571,276.1851,0,U,43572,999,41095,.51824E-6,.21E-6,0
IRIDIUM 155,2018-061E,2026-05-31T03:46:34.473216,14.34217832,.0002261,86.3969,63.7932,81.1694,278.9758,0,U,43573,999,41091,.5464E-4,.173E-5,0
IRIDIUM 154,2018-061F,2026-05-31T04:59:38.302080,14.34216845,.0002061,86.3972,63.9047,84.9180,275.2251,0,U,43574,999,41097,.28346E-4,.99E-6,0
IRIDIUM 163,2018-061G,2026-05-31T04:32:14.493696,14.34217765,.0002339,86.3969,63.8286,84.8971,275.2492,0,U,43575,999,41094,.58515E-5,.36E-6,0
IRIDIUM 156,2018-061H,2026-05-31T03:55:42.454848,14.34217723,.0002063,86.3968,63.8464,79.2623,280.8805,0,U,43576,999,41093,.70871E-5,.4E-6,0
IRIDIUM 164,2018-061J,2026-05-31T03:28:18.390720,14.34218924,.0001915,86.3968,63.8944,86.3744,273.7671,0,U,43577,999,41097,-.19517E-4,-.35E-6,0
IRIDIUM 159,2018-061K,2026-05-31T04:23:06.457632,14.34217409,.0002186,86.3964,63.8159,86.6588,273.4858,0,U,43578,999,41094,-.12617E-4,-.16E-6,0
BEIDOU-3 M5,2018-062A,2026-05-30T09:18:10.534752,1.86228783,.0005439,54.0846,182.9091,288.8108,71.2094,0,U,43581,999,5330,0,.85E-6,0
BEIDOU-3 M6,2018-062B,2026-05-30T18:54:40.220928,1.86227847,.00048627,54.0842,182.8846,10.8586,349.2302,0,U,43582,999,5331,0,.82E-6,0
GAOFEN-11 01,2018-063A,2026-05-31T04:26:25.018656,15.54760133,.0004874,97.1304,218.1181,55.0528,305.1184,0,U,43585,999,43770,.32119E-3,.21283E-3,0
TELKOM 4 (MERAH PUTIH),2018-064A,2026-05-31T00:33:58.754016,1.00272278,.0001695,0.0166,24.7864,66.3870,273.8487,0,U,43587,999,2870,0,-.332E-5,0
BEIDOU-3 M12,2018-067A,2026-05-30T04:32:44.685312,1.86227902,.00078092,54.1791,181.6504,30.0536,330.0691,0,U,43602,999,5278,0,.87E-6,0
BEIDOU-3 M11,2018-067B,2026-05-30T07:47:09.749760,1.86227292,.00045089,54.1764,181.6095,14.1807,345.9095,0,U,43603,999,5281,0,.86E-6,0
HAIYANG-1C,2018-068A,2026-05-31T05:19:40.626336,14.34173334,.0011678,98.5199,223.7745,140.3227,219.8814,0,U,43609,999,40465,.86633E-4,.199E-5,0
TELSTAR 18V,2018-069A,2026-05-30T22:59:47.543424,1.00271944,.000214,0.0115,295.2415,128.5001,307.6711,0,U,43611,999,2846,0,-.281E-5,0
ICESAT-2,2018-070A,2026-05-31T04:42:11.039040,15.28318667,.0004006,92.0063,286.3908,122.5034,237.6603,0,U,43613,999,42986,.54141E-3,.14939E-3,0
SSTL S1-4,2018-071A,2026-05-31T04:01:56.142624,14.96197724,.0000767,97.5051,23.4894,88.8138,271.3172,0,U,43618,999,42039,.10218E-3,.1097E-4,0
NOVASAR 1,2018-071B,2026-05-31T04:50:13.500960,14.96228754,.0002215,97.5096,24.2173,93.8901,266.2574,0,U,43619,999,42039,.14821E-3,.1617E-4,0
BEIDOU-3 M13,2018-072A,2026-05-30T06:42:13.602240,1.86231313,.00079523,56.6103,63.2500,325.6248,34.3239,0,U,43622,999,5232,0,-.81E-6,0
BEIDOU-3 M14,2018-072B,2026-05-30T03:28:27.272640,1.86231381,.00065288,56.6118,63.2485,353.4482,6.5426,0,U,43623,999,5231,0,-.82E-6,0
AZERSPACE 2 (IS-38),2018-074A,2026-05-31T03:41:22.849152,1.00270324,.0001599,0.0169,314.7199,111.0972,283.3013,0,U,43632,999,2827,0,.149E-5,0
HORIZONS-3E,2018-074B,2026-05-31T02:34:04.578816,1.00268651,.000073,0.0185,137.3366,169.5374,149.2480,0,U,43633,999,2817,0,-.19E-6,0
CENTISPACE-1 S1,2018-075A,2026-05-31T04:20:12.206976,14.59974290,.0008889,97.8732,175.7995,165.0066,195.1400,0,U,43636,999,40807,.1565E-3,.707E-5,0
SAOCOM 1A,2018-076A,2026-05-31T04:34:56.530848,14.82158488,.0001487,97.8879,338.1869,83.1760,276.9622,0,U,43641,999,41358,.12201E-4,.45E-6,0
YAOGAN-32 A,2018-077A,2026-05-31T05:34:22.787616,14.63149538,.0001264,98.1481,179.9802,102.7601,257.3742,0,U,43642,999,40736,.16453E-3,.799E-5,0
YAOGAN-32 B,2018-077B,2026-05-31T05:34:07.315104,14.63149386,.0004335,98.1485,179.9344,274.6466,85.4241,0,U,43643,999,40735,.15734E-3,.762E-5,0
BEIDOU-3 M16,2018-078A,2026-05-30T07:12:30.322080,1.86232457,.00075692,54.1070,300.6129,40.4720,319.5543,0,U,43647,999,5182,0,-.91E-6,0
BEIDOU-3 M15,2018-078B,2026-05-30T10:18:41.891328,1.86232433,.00046561,54.1026,300.6077,55.1707,304.8433,0,U,43648,999,5184,0,-.9E-6,0
AEHF-4 (USA 288),2018-079A,2026-05-31T03:58:28.417152,1.00267059,.0061829,1.4293,2.5018,357.3048,240.8437,0,U,43651,999,2812,0,-.263E-5,0
HAIYANG-2B,2018-081A,2026-05-31T04:32:04.922304,13.79308583,.0001104,99.3282,160.2016,29.1401,330.9812,0,U,43655,999,38258,.26049E-3,.223E-5,0
COSMOS 2528,2018-082A,2026-05-31T04:21:46.223136,13.96708137,.000781,67.1473,119.0886,280.6640,79.3565,0,U,43657,999,38757,.26038E-4,-.39E-6,0
CFOSAT,2018-083A,2026-05-31T04:48:22.926240,15.16347297,.0001966,97.3600,156.2331,98.1008,262.0448,0,U,43662,999,41986,.24623E-3,.4711E-4,0
GOSAT 2 (IBUKI 1),2018-084B,2026-05-30T21:37:13.960992,14.84240729,.0001472,97.8785,262.6114,92.2996,267.8387,0,U,43672,999,41099,.29692E-3,.2433E-4,0
KHALIFASAT,2018-084F,2026-05-31T04:47:14.656416,15.01201378,.0007217,98.0716,332.9415,150.0632,210.1005,0,U,43676,999,41322,.14129E-3,.1748E-4,0
